SKY MEXICO-1            
1 40664U 15026B   26115.86780985 -.00000248  00000+0  00000+0 0  9993
2 40664   0.0434  69.3381 0002045 318.0762  60.0591  1.00271508 39929
METEOSAT-11 (MSG-4)     
1 40732U 15034A   26115.78285896  .00000052  00000+0  00000+0 0  9992
2 40732   3.0706  71.3812 0001605 344.1619  89.6845  1.00263805  6692
STAR ONE C4             
1 40733U 15034B   26115.86780985  .00000000  00000+0  00000+0 0  9994
2 40733   0.0169  22.9312 0002634   2.4025  70.9670  1.00268393 39498
WGS F7 (USA 263)        
1 40746U 15036A   26115.31652587  .00000003  00000+0  00000+0 0  9999
2 40746   0.0138 259.2987 0000544 206.4274  36.5566  1.00270874 39344
INTELSAT 34 (IS-34)     
1 40874U 15039A   26115.30669823 -.00000300  00000+0  00000+0 0  9995
2 40874   0.0145 284.3607 0000314  32.2445 311.6334  1.00272204 39105
EUTELSAT 8 WEST B       
1 40875U 15039B   26115.70812660 -.00000080  00000+0  00000+0 0  9994
2 40875   0.0691 355.3347 0003948  40.4735  64.8400  1.00271411 39134
GSAT-6                  
1 40880U 15041A   26115.79733235 -.00000173  00000+0  00000+0 0  9995
2 40880   1.7844  83.2173 0003116 315.0749 185.1057  1.00272915 39073
INMARSAT 5-F3           
1 40882U 15042A   26115.31747919  .00000036  00000+0  00000+0 0  9997
2 40882   0.0136 208.6854 0001059 173.8948 124.6284  1.00271380 39047
MUOS-4                  
1 40887U 15044A   26115.79585899 -.00000103  00000+0  00000+0 0  9999
2 40887   4.2340  41.9049 0059965   1.4930 171.8504  1.00272248 39037
TJS-1                   
1 40892U 15046A   26115.77614311 -.00000170  00000+0  00000+0 0  9991
2 40892   0.1888  83.9295 0005549 328.6510 235.5837  1.00269538 39047
EXPRESS-AM8             
1 40895U 15048A   26114.78000075 -.00000126  00000+0  00000+0 0  9993
2 40895   0.0192 244.4769 0000539  32.6172 202.5049  1.00271897 38811
BEIDOU-3S IGSO-2S       
1 40938U 15053A   26114.37384534 -.00000160  00000+0  00000+0 0  9995
2 40938  49.3085 259.4191 0063611 189.9313 354.4565  1.00271595 38819
SKY MUSTER 1 (NBN1A)    
1 40940U 15054A   26115.35461183 -.00000293  00000+0  00000+0 0  9991
2 40940   0.0155 257.5679 0001677 130.9225  92.7942  1.00271879 38733
ARSAT 2                 
1 40941U 15054B   26115.86780985 -.00000238  00000+0  00000+0 0  9991
2 40941   0.0419  70.4282 0002140 311.5401  63.3117  1.00272318 38779
MORELOS 3               
1 40946U 15056A   26115.68732649 -.00000056  00000+0  00000+0 0  9990
2 40946   3.1471  13.6214 0003168 359.1809 335.2393  1.00272117 38753
APSTAR-9                
1 40982U 15059A   26115.88044603 -.00000279  00000+0  00000+0 0  9998
2 40982   0.0559  61.3183 0000929 158.3016  93.2397  1.00270722 38599
TURKSAT 4B              
1 40984U 15060A   26115.79091897  .00000101  00000+0  00000+0 0  9992
2 40984   0.0345  83.4017 0002278 295.2686 169.8694  1.00268818 38579
