[{"OBJECT_NAME":"SKY MEXICO-1","OBJECT_ID":"2015-026B","EPOCH":"2026-04-25T20:49:38.771040","MEAN_MOTION":1.00271508,"ECCENTRICITY":0.0002045,"INCLINATION":0.0434,"RA_OF_ASC_NODE":69.3381,"ARG_OF_PERICENTER":318.0762,"MEAN_ANOMALY":60.0591,"EPHEMERIS_TYPE":0,"CLASSIFICATION_TYPE":"U","NORAD_CAT_ID":40664,"ELEMENT_SET_NO":999,"REV_AT_EPOCH":3992,"BSTAR":0,"MEAN_MOTION_DOT":-2.48e-6,"MEAN_MOTION_DDOT":0},{"OBJECT_NAME":"METEOSAT-11 (MSG-4)","OBJECT_ID":"2015-034A","EPOCH":"2026-04-25T18:47:19.014144","MEAN_MOTION":1.00263805,"ECCENTRICITY":0.0001605,"INCLINATION":3.0706,"RA_OF_ASC_NODE":71.3812,"ARG_OF_PERICENTER":344.1619,"MEAN_ANOMALY":89.6845,"EPHEMERIS_TYPE":0,"CLASSIFICATION_TYPE":"U","NORAD_CAT_ID":40732,"ELEMENT_SET_NO":999,"REV_AT_EPOCH":669,"BSTAR":0,"MEAN_MOTION_DOT":5.2e-7,"MEAN_MOTION_DDOT":0},{"OBJECT_NAME":"STAR ONE C4","OBJECT_ID":"2015-034B","EPOCH":"2026-04-25T20:49:38.771040","MEAN_MOTION":1.00268393,"ECCENTRICITY":0.0002634,"INCLINATION":0.0169,"RA_OF_ASC_NODE":22.9312,"ARG_OF_PERICENTER":2.4025,"MEAN_ANOMALY":70.967,"EPHEMERIS_TYPE":0,"CLASSIFICATION_TYPE":"U","NORAD_CAT_ID":40733,"ELEMENT_SET_NO":999,"REV_AT_EPOCH":3949,"BSTAR":0,"MEAN_MOTION_DOT":0,"MEAN_MOTION_DDOT":0},{"OBJECT_NAME":"WGS F7 (USA 263)","OBJECT_ID":"2015-036A","EPOCH":"2026-04-25T07:35:47.835168","MEAN_MOTION":1.00270874,"ECCENTRICITY":5.44e-5,"INCLINATION":0.0138,"RA_OF_ASC_NODE":259.2987,"ARG_OF_PERICENTER":206.4274,"MEAN_ANOMALY":36.5566,"EPHEMERIS_TYPE":0,"CLASSIFICATION_TYPE":"U","NORAD_CAT_ID":40746,"ELEMENT_SET_NO":999,"REV_AT_EPOCH":3934,"BSTAR":0,"MEAN_MOTION_DOT":3.0e-8,"MEAN_MOTION_DDOT":0},{"OBJECT_NAME":"INTELSAT 34 (IS-34)","OBJECT_ID":"2015-039A","EPOCH":"2026-04-25T07:21:38.727072","MEAN_MOTION":1.00272204,"ECCENTRICITY":3.14e-5,"INCLINATION":0.0145,"RA_OF_ASC_NODE":284.3607,"ARG_OF_PERICENTER":32.2445,"MEAN_ANOMALY":311.6334,"EPHEMERIS_TYPE":0,"CLASSIFICATION_TYPE":"U","NORAD_CAT_ID":40874,"ELEMENT_SET_NO":999,"REV_AT_EPOCH":3910,"BSTAR":0,"MEAN_MOTION_DOT":-3.0e-6,"MEAN_MOTION_DDOT":0},{"OBJECT_NAME":"EUTELSAT 8 WEST B","OBJECT_ID":"2015-039B","EPOCH":"2026-04-25T16:59:42.138240","MEAN_MOTION":1.00271411,"ECCENTRICITY":0.0003948,"INCLINATION":0.0691,"RA_OF_ASC_NODE":355.3347,"ARG_OF_PERICENTER":40.4735,"MEAN_ANOMALY":64.84,"EPHEMERIS_TYPE":0,"CLASSIFICATION_TYPE":"U","NORAD_CAT_ID":40875,"ELEMENT_SET_NO":999,"REV_AT_EPOCH":3913,"BSTAR":0,"MEAN_MOTION_DOT":-8.0e-7,"MEAN_MOTION_DDOT":0},{"OBJECT_NAME":"GSAT-6","OBJECT_ID":"2015-041A","EPOCH":"2026-04-25T19:08:09.515040","MEAN_MOTION":1.00272915,"ECCENTRICITY":0.0003116,"INCLINATION":1.7844,"RA_OF_ASC_NODE":83.2173,"ARG_OF_PERICENTER":315.0749,"MEAN_ANOMALY":185.1057,"EPHEMERIS_TYPE":0,"CLASSIFICATION_TYPE":"U","NORAD_CAT_ID":40880,"ELEMENT_SET_NO":999,"REV_AT_EPOCH":3907,"BSTAR":0,"MEAN_MOTION_DOT":-1.73e-6,"MEAN_MOTION_DDOT":0},{"OBJECT_NAME":"INMARSAT 5-F3","OBJECT_ID":"2015-042A","EPOCH":"2026-04-25T07:37:10.202016","MEAN_MOTION":1.0027138,"ECCENTRICITY":0.0001059,"INCLINATION":0.0136,"RA_OF_ASC_NODE":208.6854,"ARG_OF_PERICENTER":173.8948,"MEAN_ANOMALY":124.6284,"EPHEMERIS_TYPE":0,"CLASSIFICATION_TYPE":"U","NORAD_CAT_ID":40882,"ELEMENT_SET_NO":999,"REV_AT_EPOCH":3904,"BSTAR":0,"MEAN_MOTION_DOT":3.6e-7,"MEAN_MOTION_DDOT":0},{"OBJECT_NAME":"MUOS-4","OBJECT_ID":"2015-044A","EPOCH":"2026-04-25T19:06:02.216736","MEAN_MOTION":1.00272248,"ECCENTRICITY":0.0059965,"INCLINATION":4.234,"RA_OF_ASC_NODE":41.9049,"ARG_OF_PERICENTER":1.493,"MEAN_ANOMALY":171.8504,"EPHEMERIS_TYPE":0,"CLASSIFICATION_TYPE":"U","NORAD_CAT_ID":40887,"ELEMENT_SET_NO":999,"REV_AT_EPOCH":3903,"BSTAR":0,"MEAN_MOTION_DOT":-1.03e-6,"MEAN_MOTION_DDOT":0},{"OBJECT_NAME":"TJS-1","OBJECT_ID":"2015-046A","EPOCH":"2026-04-25T18:37:38.764704","MEAN_MOTION":1.00269538,"ECCENTRICITY":0.0005549,"INCLINATION":0.1888,"RA_OF_ASC_NODE":83.9295,"ARG_OF_PERICENTER":328.651,"MEAN_ANOMALY":235.5837,"EPHEMERIS_TYPE":0,"CLASSIFICATION_TYPE":"U","NORAD_CAT_ID":40892,"ELEMENT_SET_NO":999,"REV_AT_EPOCH":3904,"BSTAR":0,"MEAN_MOTION_DOT":-1.7e-6,"MEAN_MOTION_DDOT":0},{"OBJECT_NAME":"EXPRESS-AM8","OBJECT_ID":"2015-048A","EPOCH":"2026-04-24T18:43:12.064800","MEAN_MOTION":1.00271897,"ECCENTRICITY":5.394e-5,"INCLINATION":0.0192,"RA_OF_ASC_NODE":244.4769,"ARG_OF_PERICENTER":32.6172,"MEAN_ANOMALY":202.5049,"EPHEMERIS_TYPE":0,"CLASSIFICATION_TYPE":"U","NORAD_CAT_ID":40895,"ELEMENT_SET_NO":999,"REV_AT_EPOCH":3881,"BSTAR":0,"MEAN_MOTION_DOT":-1.26e-6,"MEAN_MOTION_DDOT":0},{"OBJECT_NAME":"BEIDOU-3S IGSO-2S","OBJECT_ID":"2015-053A","EPOCH":"2026-04-24T08:58:20.237376","MEAN_MOTION":1.00271595,"ECCENTRICITY":0.00636117,"INCLINATION":49.3085,"RA_OF_ASC_NODE":259.4191,"ARG_OF_PERICENTER":189.9313,"MEAN_ANOMALY":354.4565,"EPHEMERIS_TYPE":0,"CLASSIFICATION_TYPE":"U","NORAD_CAT_ID":40938,"ELEMENT_SET_NO":999,"REV_AT_EPOCH":3881,"BSTAR":0,"MEAN_MOTION_DOT":-1.6e-6,"MEAN_MOTION_DDOT":0},{"OBJECT_NAME":"SKY MUSTER 1 (NBN1A)","OBJECT_ID":"2015-054A","EPOCH":"2026-04-25T08:30:38.462112","MEAN_MOTION":1.00271879,"ECCENTRICITY":0.0001677,"INCLINATION":0.0155,"RA_OF_ASC_NODE":257.5679,"ARG_OF_PERICENTER":130.9225,"MEAN_ANOMALY":92.7942,"EPHEMERIS_TYPE":0,"CLASSIFICATION_TYPE":"U","NORAD_CAT_ID":40940,"ELEMENT_SET_NO":999,"REV_AT_EPOCH":3873,"BSTAR":0,"MEAN_MOTION_DOT":-2.93e-6,"MEAN_MOTION_DDOT":0},{"OBJECT_NAME":"ARSAT 2","OBJECT_ID":"2015-054B","EPOCH":"2026-04-25T20:49:38.771040","MEAN_MOTION":1.00272318,"ECCENTRICITY":0.000214,"INCLINATION":0.0419,"RA_OF_ASC_NODE":70.4282,"ARG_OF_PERICENTER":311.5401,"MEAN_ANOMALY":63.3117,"EPHEMERIS_TYPE":0,"CLASSIFICATION_TYPE":"U","NORAD_CAT_ID":40941,"ELEMENT_SET_NO":999,"REV_AT_EPOCH":3877,"BSTAR":0,"MEAN_MOTION_DOT":-2.38e-6,"MEAN_MOTION_DDOT":0},{"OBJECT_NAME":"MORELOS 3","OBJECT_ID":"2015-056A","EPOCH":"2026-04-25T16:29:45.008736","MEAN_MOTION":1.00272117,"ECCENTRICITY":0.0003168,"INCLINATION":3.1471,"RA_OF_ASC_NODE":13.6214,"ARG_OF_PERICENTER":359.1809,"MEAN_ANOMALY":335.2393,"EPHEMERIS_TYPE":0,"CLASSIFICATION_TYPE":"U","NORAD_CAT_ID":40946,"ELEMENT_SET_NO":999,"REV_AT_EPOCH":3875,"BSTAR":0,"MEAN_MOTION_DOT":-5.6e-7,"MEAN_MOTION_DDOT":0},{"OBJECT_NAME":"APSTAR-9","OBJECT_ID":"2015-059A","EPOCH":"2026-04-25T21:07:50.536992","MEAN_MOTION":1.00270722,"ECCENTRICITY":9.29e-5,"INCLINATION":0.0559,"RA_OF_ASC_NODE":61.3183,"ARG_OF_PERICENTER":158.3016,"MEAN_ANOMALY":93.2397,"EPHEMERIS_TYPE":0,"CLASSIFICATION_TYPE":"U","NORAD_CAT_ID":40982,"ELEMENT_SET_NO":999,"REV_AT_EPOCH":3859,"BSTAR":0,"MEAN_MOTION_DOT":-2.79e-6,"MEAN_MOTION_DDOT":0},{"OBJECT_NAME":"TURKSAT 4B","OBJECT_ID":"2015-060A","EPOCH":"2026-04-25T18:58:55.399008","MEAN_MOTION":1.00268818,"ECCENTRICITY":0.0002278,"INCLINATION":0.0345,"RA_OF_ASC_NODE":83.4017,"ARG_OF_PERICENTER":295.2686,"MEAN_ANOMALY":169.8694,"EPHEMERIS_TYPE":0,"CLASSIFICATION_TYPE":"U","NORAD_CAT_ID":40984,"ELEMENT_SET_NO":999,"REV_AT_EPOCH":3857,"BSTAR":0,"MEAN_MOTION_DOT":1.01e-6,"MEAN_MOTION_DDOT":0}]
